[{"OBJECT_NAME":"STARLINK-31355","OBJECT_ID":"2024-031P","EPOCH":"2025-09-11T17:44:51.182592","MEAN_MOTION":15.30189193,"ECCENTRICITY":0.00010516,"INCLINATION":53.1609,"RA_OF_ASC_NODE":48.0022,"ARG_OF_PERICENTER":95.9087,"MEAN_ANOMALY":264.2033,"EPHEMERIS_TYPE":0,"CLASSIFICATION_TYPE":"U","NORAD_CAT_ID":58978,"ELEMENT_SET_NO":999,"REV_AT_EPOCH":8911,"BSTAR":1.6592535e-5,"MEAN_MOTION_DOT":1.32e-6,"MEAN_MOTION_DDOT":0},{"OBJECT_NAME":"STARLINK-31380","OBJECT_ID":"2024-031Q","EPOCH":"2025-09-11T17:49:24.548736","MEAN_MOTION":15.30194353,"ECCENTRICITY":0.00011413,"INCLINATION":53.1617,"RA_OF_ASC_NODE":48.0225,"ARG_OF_PERICENTER":91.9608,"MEAN_ANOMALY":268.1523,"EPHEMERIS_TYPE":0,"CLASSIFICATION_TYPE":"U","NORAD_CAT_ID":58979,"ELEMENT_SET_NO":999,"REV_AT_EPOCH":8911,"BSTAR":1.7206318e-5,"MEAN_MOTION_DOT":1.5e-6,"MEAN_MOTION_DDOT":0},{"OBJECT_NAME":"STARLINK-31353","OBJECT_ID":"2024-031R","EPOCH":"2025-09-11T17:46:22.518624","MEAN_MOTION":15.30190247,"ECCENTRICITY":0.00014606,"INCLINATION":53.1613,"RA_OF_ASC_NODE":48.0116,"ARG_OF_PERICENTER":65.0756,"MEAN_ANOMALY":295.0396,"EPHEMERIS_TYPE":0,"CLASSIFICATION_TYPE":"U","NORAD_CAT_ID":58980,"ELEMENT_SET_NO":999,"REV_AT_EPOCH":8911,"BSTAR":4.5833346e-5,"MEAN_MOTION_DOT":9.98e-6,"MEAN_MOTION_DDOT":0},{"OBJECT_NAME":"STARLINK-31339","OBJECT_ID":"2024-031S","EPOCH":"2025-09-11T17:53:57.945120","MEAN_MOTION":15.30200953,"ECCENTRICITY":0.00012783,"INCLINATION":53.1613,"RA_OF_ASC_NODE":48.0383,"ARG_OF_PERICENTER":118.4871,"MEAN_ANOMALY":241.6259,"EPHEMERIS_TYPE":0,"CLASSIFICATION_TYPE":"U","NORAD_CAT_ID":58981,"ELEMENT_SET_NO":999,"REV_AT_EPOCH":8911,"BSTAR":-5.2999929e-5,"MEAN_MOTION_DOT":-1.929e-5,"MEAN_MOTION_DDOT":0},{"OBJECT_NAME":"STARLINK-31384","OBJECT_ID":"2024-031U","EPOCH":"2025-09-12T09:43:37.256448","MEAN_MOTION":15.30191253,"ECCENTRICITY":0.00013737,"INCLINATION":53.1611,"RA_OF_ASC_NODE":45.0459,"ARG_OF_PERICENTER":97.1094,"MEAN_ANOMALY":263.0063,"EPHEMERIS_TYPE":0,"CLASSIFICATION_TYPE":"U","NORAD_CAT_ID":58983,"ELEMENT_SET_NO":999,"REV_AT_EPOCH":8921,"BSTAR":-5.730771e-6,"MEAN_MOTION_DOT":-5.29e-6,"MEAN_MOTION_DDOT":0},{"OBJECT_NAME":"STARLINK-31379","OBJECT_ID":"2024-031V","EPOCH":"2025-09-11T16:35:06.732960","MEAN_MOTION":15.30199059,"ECCENTRICITY":9.543e-5,"INCLINATION":53.1618,"RA_OF_ASC_NODE":48.4097,"ARG_OF_PERICENTER":82.4947,"MEAN_ANOMALY":277.6162,"EPHEMERIS_TYPE":0,"CLASSIFICATION_TYPE":"U","NORAD_CAT_ID":58984,"ELEMENT_SET_NO":999,"REV_AT_EPOCH":8910,"BSTAR":1.0679191e-5,"MEAN_MOTION_DOT":-4.3e-7,"MEAN_MOTION_DDOT":0},{"OBJECT_NAME":"STARLINK-31385","OBJECT_ID":"2024-031W","EPOCH":"2025-09-11T17:33:26.696736","MEAN_MOTION":15.30201721,"ECCENTRICITY":0.00011522,"INCLINATION":53.1619,"RA_OF_ASC_NODE":45.7826,"ARG_OF_PERICENTER":94.9777,"MEAN_ANOMALY":265.1355,"EPHEMERIS_TYPE":0,"CLASSIFICATION_TYPE":"U","NORAD_CAT_ID":58985,"ELEMENT_SET_NO":999,"REV_AT_EPOCH":8914,"BSTAR":0.00012402989,"MEAN_MOTION_DOT":3.316e-5,"MEAN_MOTION_DDOT":0},{"OBJECT_NAME":"STARLINK-31229","OBJECT_ID":"2024-031X","EPOCH":"2025-09-12T13:06:55.364832","MEAN_MOTION":15.30188489,"ECCENTRICITY":0.00010848,"INCLINATION":53.1608,"RA_OF_ASC_NODE":44.5019,"ARG_OF_PERICENTER":82.3721,"MEAN_ANOMALY":277.7403,"EPHEMERIS_TYPE":0,"CLASSIFICATION_TYPE":"U","NORAD_CAT_ID":58986,"ELEMENT_SET_NO":999,"REV_AT_EPOCH":8923,"BSTAR":-5.285032e-6,"MEAN_MOTION_DOT":-5.15e-6,"MEAN_MOTION_DDOT":0},{"OBJECT_NAME":"STARLINK-31468","OBJECT_ID":"2024-036A","EPOCH":"2025-09-10T23:38:26.310336","MEAN_MOTION":15.30199144,"ECCENTRICITY":0.0001242,"INCLINATION":53.1594,"RA_OF_ASC_NODE":192.5646,"ARG_OF_PERICENTER":95.7954,"MEAN_ANOMALY":264.3189,"EPHEMERIS_TYPE":0,"CLASSIFICATION_TYPE":"U","NORAD_CAT_ID":58998,"ELEMENT_SET_NO":999,"REV_AT_EPOCH":8782,"BSTAR":3.662239e-6,"MEAN_MOTION_DOT":-2.51e-6,"MEAN_MOTION_DDOT":0},{"OBJECT_NAME":"STARLINK-31440","OBJECT_ID":"2024-036B","EPOCH":"2025-09-11T05:57:45.851904","MEAN_MOTION":15.30142011,"ECCENTRICITY":0.00012371,"INCLINATION":53.1585,"RA_OF_ASC_NODE":191.3555,"ARG_OF_PERICENTER":68.8021,"MEAN_ANOMALY":291.3112,"EPHEMERIS_TYPE":0,"CLASSIFICATION_TYPE":"U","NORAD_CAT_ID":58999,"ELEMENT_SET_NO":999,"REV_AT_EPOCH":8704,"BSTAR":-0.00020200212,"MEAN_MOTION_DOT":-6.326e-5,"MEAN_MOTION_DDOT":0},{"OBJECT_NAME":"STARLINK-31529","OBJECT_ID":"2024-036C","EPOCH":"2025-09-12T12:09:46.725984","MEAN_MOTION":15.30192477,"ECCENTRICITY":8.984e-5,"INCLINATION":53.1601,"RA_OF_ASC_NODE":183.5797,"ARG_OF_PERICENTER":87.1898,"MEAN_ANOMALY":272.9205,"EPHEMERIS_TYPE":0,"CLASSIFICATION_TYPE":"U","NORAD_CAT_ID":59000,"ELEMENT_SET_NO":999,"REV_AT_EPOCH":8799,"BSTAR":1.4459748e-5,"MEAN_MOTION_DOT":6.9e-7,"MEAN_MOTION_DDOT":0},{"OBJECT_NAME":"STARLINK-31431","OBJECT_ID":"2024-036E","EPOCH":"2025-09-12T12:48:31.584096","MEAN_MOTION":15.30188741,"ECCENTRICITY":5.199e-5,"INCLINATION":53.1597,"RA_OF_ASC_NODE":185.8706,"ARG_OF_PERICENTER":97.2037,"MEAN_ANOMALY":262.9023,"EPHEMERIS_TYPE":0,"CLASSIFICATION_TYPE":"U","NORAD_CAT_ID":59002,"ELEMENT_SET_NO":999,"REV_AT_EPOCH":8804,"BSTAR":3.5296822e-5,"MEAN_MOTION_DOT":6.86e-6,"MEAN_MOTION_DDOT":0},{"OBJECT_NAME":"STARLINK-31435","OBJECT_ID":"2024-036G","EPOCH":"2025-09-11T02:51:06.372864","MEAN_MOTION":15.30188875,"ECCENTRICITY":0.00012403,"INCLINATION":53.1562,"RA_OF_ASC_NODE":191.9673,"ARG_OF_PERICENTER":90.1508,"MEAN_ANOMALY":269.9635,"EPHEMERIS_TYPE":0,"CLASSIFICATION_TYPE":"U","NORAD_CAT_ID":59004,"ELEMENT_SET_NO":999,"REV_AT_EPOCH":8784,"BSTAR":-9.486597e-6,"MEAN_MOTION_DOT":-6.4e-6,"MEAN_MOTION_DDOT":0},{"OBJECT_NAME":"STARLINK-31484","OBJECT_ID":"2024-036H","EPOCH":"2025-09-11T06:03:46.685088","MEAN_MOTION":15.30188386,"ECCENTRICITY":0.00011854,"INCLINATION":53.1586,"RA_OF_ASC_NODE":191.3797,"ARG_OF_PERICENTER":89.4192,"MEAN_ANOMALY":270.6945,"EPHEMERIS_TYPE":0,"CLASSIFICATION_TYPE":"U","NORAD_CAT_ID":59005,"ELEMENT_SET_NO":999,"REV_AT_EPOCH":8785,"BSTAR":7.688001e-6,"MEAN_MOTION_DOT":-1.31e-6,"MEAN_MOTION_DDOT":0},{"OBJECT_NAME":"STARLINK-31450","OBJECT_ID":"2024-036J","EPOCH":"2025-09-12T12:01:25.078080","MEAN_MOTION":15.30194644,"ECCENTRICITY":0.00011625,"INCLINATION":53.159,"RA_OF_ASC_NODE":185.662,"ARG_OF_PERICENTER":84.1983,"MEAN_ANOMALY":275.9151,"EPHEMERIS_TYPE":0,"CLASSIFICATION_TYPE":"U","NORAD_CAT_ID":59006,"ELEMENT_SET_NO":999,"REV_AT_EPOCH":8804,"BSTAR":1.8993101e-5,"MEAN_MOTION_DOT":2.03e-6,"MEAN_MOTION_DDOT":0},{"OBJECT_NAME":"STARLINK-31456","OBJECT_ID":"2024-036K","EPOCH":"2025-09-11T12:24:32.724288","MEAN_MOTION":15.30196683,"ECCENTRICITY":0.00011729,"INCLINATION":53.1627,"RA_OF_ASC_NODE":190.1867,"ARG_OF_PERICENTER":92.388,"MEAN_ANOMALY":267.7255,"EPHEMERIS_TYPE":0,"CLASSIFICATION_TYPE":"U","NORAD_CAT_ID":59007,"ELEMENT_SET_NO":999,"REV_AT_EPOCH":8789,"BSTAR":-4.3688152e-5,"MEAN_MOTION_DOT":-1.653e-5,"MEAN_MOTION_DDOT":0}]
