STARLINK-31355          
1 58978U 24031P   25254.73948128  .00000132  00000+0  16593-4 0  9990
2 58978  53.1609  48.0022 0001051  95.9087 264.2033 15.30189193 89113
STARLINK-31380          
1 58979U 24031Q   25254.74264524  .00000150  00000+0  17206-4 0  9995
2 58979  53.1617  48.0225 0001141  91.9608 268.1523 15.30194353 89114
STARLINK-31353          
1 58980U 24031R   25254.74053841  .00000998  00000+0  45833-4 0  9992
2 58980  53.1613  48.0116 0001460  65.0756 295.0396 15.30190247 89116
STARLINK-31339          
1 58981U 24031S   25254.74580955 -.00001929  00000+0 -53000-4 0  9996
2 58981  53.1613  48.0383 0001278 118.4871 241.6259 15.30200953 89112
STARLINK-31384          
1 58983U 24031U   25255.40529232 -.00000529  00000+0 -57308-5 0  9994
2 58983  53.1611  45.0459 0001373  97.1094 263.0063 15.30191253 89213
STARLINK-31379          
1 58984U 24031V   25254.69105015 -.00000043  00000+0  10679-4 0  9993
2 58984  53.1618  48.4097 0000954  82.4947 277.6162 15.30199059 89105
STARLINK-31385          
1 58985U 24031W   25254.73155899  .00003316  00000+0  12403-3 0  9995
2 58985  53.1619  45.7826 0001152  94.9777 265.1355 15.30201721 89147
STARLINK-31229          
1 58986U 24031X   25255.54647413 -.00000515  00000+0 -52850-5 0  9996
2 58986  53.1608  44.5019 0001084  82.3721 277.7403 15.30188489 89239
STARLINK-31468          
1 58998U 24036A   25253.98502674 -.00000251  00000+0  36622-5 0  9994
2 58998  53.1594 192.5646 0001242  95.7954 264.3189 15.30199144 87824
STARLINK-31440          
1 58999U 24036B   25254.24844736 -.00006326  00000+0 -20200-3 0  9996
2 58999  53.1585 191.3555 0001237  68.8021 291.3112 15.30142011 87042
STARLINK-31529          
1 59000U 24036C   25255.50679081  .00000069  00000+0  14460-4 0  9997
2 59000  53.1601 183.5797 0000898  87.1898 272.9205 15.30192477 87997
STARLINK-31431          
1 59002U 24036E   25255.53369889  .00000686  00000+0  35297-4 0  9990
2 59002  53.1597 185.8706 0000519  97.2037 262.9023 15.30188741 88048
STARLINK-31435          
1 59004U 24036G   25254.11882376 -.00000640  00000+0 -94866-5 0  9996
2 59004  53.1562 191.9673 0001240  90.1508 269.9635 15.30188875 87841
STARLINK-31484          
1 59005U 24036H   25254.25262367 -.00000131  00000+0  76880-5 0  9994
2 59005  53.1586 191.3797 0001185  89.4192 270.6945 15.30188386 87858
STARLINK-31450          
1 59006U 24036J   25255.50098470  .00000203  00000+0  18993-4 0  9995
2 59006  53.1590 185.6620 0001162  84.1983 275.9151 15.30194644 88043
STARLINK-31456          
1 59007U 24036K   25254.51704542 -.00001653  00000+0 -43688-4 0  9991
2 59007  53.1627 190.1867 0001172  92.3880 267.7255 15.30196683 87898
